OBJECT_NAME,OBJECT_ID,EPOCH,MEAN_MOTION,ECCENTRICITY,INCLINATION,RA_OF_ASC_NODE,ARG_OF_PERICENTER,MEAN_ANOMALY,EPHEMERIS_TYPE,CLASSIFICATION_TYPE,NORAD_CAT_ID,ELEMENT_SET_NO,REV_AT_EPOCH,BSTAR,MEAN_MOTION_DOT,MEAN_MOTION_DDOT
H2SAT (HEINRICH HERTZ),2023-093A,2026-06-25T05:38:38.624928,1.00269964,.0000842,0.0480,107.4610,16.9784,234.2914,0,U,57213,999,1099,0,.11E-6,0
SYRACUSE 4B,2023-093B,2026-06-24T09:11:31.767648,1.00269725,.00002671,0.0239,21.5852,108.5537,273.8248,0,U,57214,999,703,0,0,0
JUPITER 3 (ECHOSTAR 24),2023-108A,2026-06-23T12:14:12.353280,1.00269415,.0001194,0.0217,7.9584,82.7820,269.2732,0,U,57479,999,1071,0,0,0
GALAXY 37 (G-37),2023-112A,2026-06-24T22:53:38.774400,1.00273244,.00022452,0.0160,31.7708,61.6422,36.1021,0,U,57493,999,1062,0,.57E-6,0
LUDI TANCE-4 01A,2023-120A,2026-06-24T12:46:39.657216,1.00268303,.00013671,15.1002,193.7787,22.2566,337.9252,0,U,57624,999,1062,0,-.158E-5,0
TJS-10,2023-169A,2026-06-24T18:13:08.293728,1.00272332,.0003872,2.5643,80.4108,104.3118,93.9179,0,U,58204,999,961,0,-.243E-5,0
ZHONGXING-6E,2023-172A,2026-06-25T08:00:54.876672,1.00267737,.00030896,0.0381,262.1808,186.7641,60.2251,0,U,58253,999,974,0,-.351E-5,0
YAOGAN-41,2023-197A,2026-06-25T08:03:09.660672,1.00266850,.00143943,3.1133,313.2742,192.9274,11.1692,0,U,58582,999,940,0,-.351E-5,0
OVZON-3,2024-003A,2026-06-24T11:13:02.451072,1.00273967,.00001616,0.0073,50.9109,38.7380,50.9160,0,U,58698,999,752,0,.59E-6,0
INSAT-3DS,2024-033A,2026-06-25T03:17:38.636736,1.00270849,.00014147,0.0576,102.6872,340.0050,322.0784,0,U,58990,999,4714,0,-.146E-5,0
MERAH PUTIH 2,2024-035A,2026-06-25T01:09:33.775776,1.00270766,.000143,0.0178,38.1785,61.5555,303.7917,0,U,58995,999,866,0,-.348E-5,0
TJS-11,2024-037A,2026-06-24T23:26:48.590592,1.00272796,.0003383,4.1886,327.1882,114.0582,296.2413,0,U,59020,999,866,0,-.354E-5,0
HULIANWAN GAOGUI-01 (HG-01),2024-040A,2026-06-24T23:34:38.637696,1.00270755,.00027705,0.0677,331.6577,73.6634,255.0386,0,U,59069,999,740,0,.165E-5,0
EUTELSAT 36D,2024-059A,2026-06-24T19:39:34.248960,1.00270360,.00005569,0.0231,16.9806,119.4534,107.2726,0,U,59346,999,822,0,0,0
PAKSAT-MM1,2024-104A,2026-06-25T05:14:38.786208,1.00270626,.00028311,0.0381,91.7166,341.6100,316.8498,0,U,59915,999,760,0,.163E-5,0
ASTRA 1P (SES-24),2024-115A,2026-06-24T21:45:00.000000,1.00274964,.00008284,0.0595,340.0652,24.8630,253.5862,0,U,60086,999,727,0,.129E-5,0
GOES 19,2024-119A,2026-06-25T03:49:38.564832,1.00271732,.0000464,0.0439,171.1940,331.0701,113.2562,0,U,60133,999,704,0,-.239E-5,0
ZHONGXING-3A,2024-122A,2026-06-25T02:48:55.293696,1.00270231,.0001292,0.0430,126.8220,351.8083,298.4362,0,U,60179,999,738,0,-.304E-5,0
TURKSAT 6A,2024-127A,2026-06-23T11:10:51.391776,1.00273332,.00019763,0.0109,151.2306,338.2753,351.8385,0,U,60233,999,708,0,0,0
HULIANWAN GAOGUI-02 (HG-02),2024-135A,2026-06-25T03:36:38.736576,1.00271607,.00074493,0.0431,357.3362,13.5264,109.6933,0,U,60327,999,758,0,-.164E-5,0
ZHONGXING-4A,2024-151A,2026-06-25T01:11:03.631776,1.00270243,.00004527,1.2936,270.7282,204.7422,293.7102,0,U,60606,999,683,0,-.352E-5,0
HULIANWAN GAOGUI-03 (HG-03),2024-181A,2026-06-25T07:05:57.366240,1.00273378,.00014263,0.0460,358.7008,93.2864,210.7965,0,U,61503,999,690,0,-.231E-5,0
DSN-3 (KIRAMEKI-3),2024-198A,2026-06-25T06:26:23.256672,1.00269859,.00009135,0.0152,320.9102,153.5578,39.5694,0,U,61733,999,600,0,-.241E-5,0
KOREASAT 6A,2024-206A,2026-06-24T23:27:48.495168,1.00269076,.00010526,0.0142,357.5282,84.2196,299.3526,0,U,61910,999,591,0,0,0
OPTUS-X (ADS-01),2024-212A,2026-06-25T05:51:38.710656,1.00272071,.00021857,0.0176,352.4531,136.1582,29.0665,0,U,62006,999,584,0,-.134E-5,0
GSAT-N2 (GSAT-20),2024-214A,2026-06-25T04:22:05.439360,1.00271931,.0002179,0.0558,104.5504,339.7554,322.4739,0,U,62028,999,597,0,-.1E-6,0
SXM-9,2024-234A,2026-06-23T08:51:54.877824,1.00271796,.00048956,0.0148,336.3648,341.8528,1.1406,0,U,62259,999,563,0,-.2E-5,0
TJS-12,2024-246A,2026-06-24T18:47:39.350112,1.00268446,.00021091,0.6533,299.9327,91.7487,309.6330,0,U,62374,999,564,0,-.223E-5,0
NUVIEW ALPHA,2024-252B,2026-06-24T08:49:41.361312,1.00270061,.0001427,0.0534,34.2511,41.0245,246.5697,0,U,62455,999,389,0,-.207E-5,0
AGILA,2024-252C,2026-06-24T09:56:48.529248,1.00271371,.0001526,0.0652,122.4429,345.1641,106.3124,0,U,62456,999,523,0,-.174E-5,0
NUVIEW BRAVO,2024-252D,2026-06-24T08:49:41.361312,1.00272657,.00023518,0.0745,147.1599,339.1991,195.4733,0,U,62457,999,386,0,-.207E-5,0
